{
    "links": {
        "self": "http://www.neowsapp.com/rest/v1/neo/3733137?api_key=iIulBulltgU6a56xZRHN4H3l9WmuAYTsLGpBGhQ2"
    },
    "id": "3733137",
    "neo_reference_id": "3733137",
    "name": "(2015 VJ1)",
    "designation": "2015 VJ1",
    "nasa_jpl_url": "http://ssd.jpl.nasa.gov/sbdb.cgi?sstr=3733137",
    "absolute_magnitude_h": 24.0,
    "estimated_diameter": {
        "kilometers": {
            "estimated_diameter_min": 0.0421264611,
            "estimated_diameter_max": 0.0941976306
        },
        "meters": {
            "estimated_diameter_min": 42.1264610556,
            "estimated_diameter_max": 94.1976305719
        },
        "miles": {
            "estimated_diameter_min": 0.0261761612,
            "estimated_diameter_max": 0.0585316759
        },
        "feet": {
            "estimated_diameter_min": 138.2101784897,
            "estimated_diameter_max": 309.0473542854
        }
    },
    "is_potentially_hazardous_asteroid": false,
    "close_approach_data": [
        {
            "close_approach_date": "2015-11-01",
            "close_approach_date_full": "2015-Nov-01 07:03",
            "epoch_date_close_approach": 1446361380000,
            "relative_velocity": {
                "kilometers_per_second": "8.9270327849",
                "kilometers_per_hour": "32137.318025751",
                "miles_per_hour": "19968.8796366118"
            },
            "miss_distance": {
                "astronomical": "0.1296753681",
                "lunar": "50.4437181909",
                "kilometers": "19399158.859225947",
                "miles": "12054078.3600821886"
            },
            "orbiting_body": "Earth"
        }
    ],
    "orbital_data": {
        "orbit_id": "6",
        "orbit_determination_date": "2017-04-06 08:31:01",
        "first_observation_date": "2015-11-02",
        "last_observation_date": "2015-12-02",
        "data_arc_in_days": 30,
        "observations_used": 26,
        "orbit_uncertainty": "7",
        "minimum_orbit_intersection": ".126033",
        "jupiter_tisserand_invariant": "3.832",
        "epoch_osculation": "2459000.5",
        "eccentricity": ".4074687895689896",
        "semi_major_axis": "1.878775873341704",
        "inclination": "14.59487230935825",
        "ascending_node_longitude": "36.15599955117838",
        "orbital_period": "940.6128090591756",
        "perihelion_distance": "1.113233342359738",
        "perihelion_argument": "11.92019999217657",
        "aphelion_distance": "2.644318404323669",
        "perihelion_time": "2459216.237860310434",
        "mean_anomaly": "277.4308185432439",
        "mean_motion": ".382729212841659",
        "equinox": "J2000",
        "orbit_class": {
            "orbit_class_type": "AMO",
            "orbit_class_description": "Near-Earth asteroid orbits similar to that of 1221 Amor",
            "orbit_class_range": "1.017 AU < q (perihelion) < 1.3 AU"
        }
    },
    "is_sentry_object": false
}